C/2010 B1 (Cardinal),e,101.7433,277.2881,211.6094,7001,0.0000017,0.99957975,0.0000,02/06.7193/2011,2000,g  7.5,4.0
# From MPC105235
P/2010 B2 (WISE),e,8.9342,0.8619,155.9684,3.108516,0.1798351,0.48019564,234.9231,01/09.0/2019,2000,g 17.0,4.0
# From MPC 75008
P/2010 C1 (Scotti),e,9.1329,141.8904,4.0341,7.097043,0.0521300,0.25933957,173.5012,01/09.0/2019,2000,g  9.5,4.0
# From MPC 75008
P/2010 D2 (WISE),e,57.0989,319.8690,120.2698,6.714027,0.0566539,0.45056199,183.5788,01/09.0/2019,2000,g 16.0,4.0
# From MPC112389
C/2010 D3 (WISE),h,09/02.3470/2010,76.3085,255.0474,304.7232,1.000058,4.257926,2000,9.0,4.0
# From MPC 76025
C/2010 D4 (WISE),e,105.8038,266.7284,44.4429,62.75970,0.0019824,0.88593522,7.0848,01/09.0/2019,2000,g  6.5,4.0
# From MPC 74248
C/2010 DG56 (WISE),e,160.4202,4.0509,318.2354,66.79232,0.0018056,0.97644022,0.0000,05/15.5437/2010,2000,g 16.0,4.0
# From MPC 70361
C/2010 E1 (Garradd),e,71.6348,169.2971,297.2050,111.9426,0.0008322,0.97597767,0.0000,11/03.3330/2009,2000,g 11.5,4.0
# From MPC 75009
P/2010 E2 (Jarnac),e,15.4477,177.8199,8.3493,8.630858,0.0388708,0.72176686,124.2481,01/09.0/2019,2000,g 14.0,4.0
# From MPC 70361
C/2010 E5 (Scotti),e,18.9046,16.9662,148.1159,24.99101,0.0078891,0.84335651,26.3329,01/09.0/2019,2000,g 10.5,4.0
# From MPC 72132
C/2010 F1 (Boattini),e,64.8741,344.4216,127.7512,69.32724,0.0017075,0.94780304,5.7210,01/09.0/2019,2000,g  9.5,4.0
# From MPC 82316
C/2010 F3 (Scotti),e,4.6453,157.3505,31.5183,64.51744,0.0019019,0.91517191,5.8567,01/09.0/2019,2000,g  8.5,4.0
# From MPC 82316
C/2010 FB87 (WISE-Garradd),e,107.8948,90.0692,265.0689,229.2728,0.0002839,0.98758050,0.0000,11/06.6102/2010,2000,g 10.0,4.0
# From MPC 70816
C/2010 G1 (Boattini),e,78.0648,287.6795,168.7559,504.6600,0.0000869,0.99759352,0.0000,04/01.0373/2010,2000,g 12.5,4.0
# From MPC 83142
C/2010 G2 (Hill),e,103.7512,247.0597,137.3378,92.85280,0.0011016,0.97879167,0.0000,09/02.8645/2011,2000,g  8.0,4.0
# From MPC 75292
C/2010 G3 (WISE),e,108.3871,313.7965,75.2432,1016,0.0000304,0.99515305,0.0000,04/06.7898/2010,2000,g  8.5,4.0
# From MPC 82316
C/2010 H1 (Garradd),e,36.5001,347.3254,233.8643,5443,0.0000025,0.99949572,0.0000,06/21.3578/2010,2000,g 13.0,4.0
# From MPC 72851
P/2010 H2 (Vales),e,14.2755,64.2437,128.7922,3.842366,0.1308597,0.19538638,63.3121,01/09.0/2019,2000,g  6.0,4.0
# From MPC 70361
P/2010 H3 (SOHO),e,23.8160,78.2525,24.9338,3.068297,0.1833826,0.98470431,0.0000,02/08.3243/2021,2000,g 20.0,2.0
# From MPC 73463
P/2010 H4 (Scotti),e,2.3214,44.7617,179.4892,6.583581,0.0583460,0.26888028,182.1833,01/09.0/2019,2000,g 10.5,4.0
# From MPC 74637
P/2010 H5 (Scotti),e,14.0825,24.8062,175.2895,7.146814,0.0515864,0.15552541,164.4265,01/09.0/2019,2000,g 13.0,2.0
# From MPC 71278
C/2010 J1 (Boattini),e,134.5173,254.5418,332.8854,36.08191,0.0045475,0.95273459,14.8439,01/09.0/2019,2000,g 12.0,4.0
# From MPC 75712
C/2010 J2 (McNaught),e,125.9672,311.7159,4.4062,1310,0.0000208,0.99741756,0.0000,05/30.9403/2010,2000,g  9.0,4.0
# From MPC 82316
P/2010 J3 (McMillan),e,13.2841,106.4275,157.4838,8.961395,0.0367401,0.72778197,112.2683,01/09.0/2019,2000,g 11.0,4.0
# From MPC 84315
P/2010 JC81 (WISE),e,38.6210,30.8326,12.5163,8.118627,0.0426069,0.77586155,120.2195,01/09.0/2019,2000,g  9.0,4.0
# From MPC 74248
C/2010 KW7 (WISE),e,147.0353,105.1594,332.7240,98.47702,0.0010086,0.97390067,0.0000,10/13.7070/2010,2000,g 15.0,2.0
# From MPC 83518
C/2010 L3 (Catalina),e,102.5070,38.2846,121.9257,38855,0.0000001,0.99974496,0.0000,11/09.2322/2010,2000,g  4.5,4.0
# From MPC112389
C/2010 L4 (WISE),e,102.7131,125.3585,95.5885,79.29862,0.0013957,0.96455171,4.5226,01/09.0/2019,2000,g 11.5,4.0
# From MPC 74248
C/2010 L5 (WISE),e,146.8960,206.4054,214.3544,8.023221,0.0433692,0.90215423,138.2906,01/09.0/2019,2000,g 18.0,4.0
# From MPC 88325
C/2010 R1 (LINEAR),e,156.9513,343.7286,114.7485,12359364,0.0000000,0.99999954,0.0000,05/17.3228/2012,2000,g  6.0,4.0
# From MPC111766
C/2010 S1 (LINEAR),h,05/17.1605/2013,125.2876,93.4108,118.4690,1.000038,5.897798,2000,3.5,4.0
# From MPC 74248
P/2010 T2 (PANSTARRS),e,8.0356,59.5489,355.0234,5.475210,0.0769313,0.32035928,211.8970,01/09.0/2019,2000,g 11.5,4.0
# From MPC 81468
P/2010 TO20 (LINEAR-Grauer),e,2.4808,43.3001,267.7861,5.821022,0.0701787,0.05298675,259.9697,01/09.0/2019,2000,g  9.0,4.0
# From MPC 82316
P/2010 U1 (Boattini),e,8.2140,280.7131,85.9475,6.518042,0.0592282,0.24657274,194.0156,01/09.0/2019,2000,g  9.5,4.0
# From MPC 74249
P/2010 U2 (Hill),e,16.8284,357.0821,44.3500,4.285095,0.1111126,0.40080822,332.2942,01/09.0/2019,2000,g 13.0,4.0
# From MPC112389
C/2010 U3 (Boattini),e,55.5118,43.0689,88.0857,6218,0.0000020,0.99864184,0.0000,02/26.6261/2019,2000,g  1.0,4.0
# From MPC 79021
P/2010 UH55 (Spacewatch),e,8.0959,233.3381,225.0419,6.642350,0.0575733,0.56543760,161.7838,01/09.0/2019,2000,g 11.0,4.0
# From MPC 75009
P/2010 WK (LINEAR),e,11.4051,11.3456,41.0747,5.754123,0.0714061,0.68952585,215.4160,01/09.0/2019,2000,g 14.5,2.0
# From MPC 76025
C/2010 X1 (Elenin),e,1.8902,321.8004,344.7065,474.8821,0.0000952,0.99901787,0.0000,09/11.0735/2011,2000,g 10.0,4.0
# From MPC 82317
P/2011 A2 (Scotti),e,4.4755,54.6681,94.5984,3.103856,0.1802402,0.49954942,169.3181,01/09.0/2019,2000,g 16.5,4.0
# From MPC 85831
C/2011 A3 (Gibbs),e,26.0905,124.6470,141.2209,899.9594,0.0000365,0.99740797,0.0000,12/18.3828/2011,2000,g 10.0,4.0
# From MPC 82317
C/2011 C1 (McNaught),e,16.2901,191.1199,85.7483,539.1566,0.0000787,0.99837494,0.0000,04/20.1571/2011,2000,g 15.5,4.0
# From MPC 84021
P/2011 C2 (Gibbs),e,10.8897,12.1010,161.1705,7.410745,0.0488553,0.27017263,124.8363,01/09.0/2019,2000,g  9.0,4.0
# From MPC 75516
C/2011 C3 (Gibbs),e,49.4516,20.8386,206.8431,319.9394,0.0001722,0.99526173,0.0000,04/09.9631/2011,2000,g 17.0,4.0
# From MPC 86639
P/2011 CR42 (Catalina),e,8.4643,58.7195,173.0080,3.507444,0.1500438,0.28116290,30.1343,01/09.0/2019,2000,g 17.5,2.0
# From MPC 89309
C/2011 F1 (LINEAR),e,56.7772,84.9805,192.5415,4087,0.0000038,0.99955603,0.0000,01/09.1490/2013,2000,g  5.0,4.0
# From MPC 79866
P/2011 FR143 (Lemmon),e,16.0108,190.9337,350.1831,6.848770,0.0549902,0.45265063,157.3497,01/09.0/2019,2000,g 14.0,2.0
# From MPC 80044
C/2011 G1 (McNaught),h,09/18.3705/2011,162.1847,153.1737,355.2174,1.001377,2.158447,2000,12.0,4.0
# From MPC106343
C/2011 J2 (LINEAR),h,12/26.0049/2013,122.7300,163.9131,85.2248,1.001481,3.435892,2000,5.5,3.6
# From MPEC 2015-K84
C/2011 J2-B (LINEAR),h,12/25.8830/2013,122.7326,163.9096,85.1823,1.002241,3.435095,2000,9.0,3.6
# From unp
C/2011 J2-C (LINEAR),h,12/25.9754/2013,122.7280,163.9148,85.1995,1.002277,3.434932,2000,11.0,3.6
# From MPC 75713
C/2011 J3 (LINEAR),e,114.4937,21.5813,27.8054,19.50882,0.0114382,0.92563607,33.2945,01/09.0/2019,2000,g 15.0,4.0
# From MPC 82317
P/2011 JB15 (Spacewatch-Boattini),e,19.1468,153.6658,110.7278,7.346381,0.0494987,0.31881337,125.8966,01/09.0/2019,2000,g  9.0,4.0
# From MPC 75516
C/2011 K1 (Schwartz-Holvorcem),e,122.6382,70.5452,167.0091,5712,0.0000023,0.99940665,0.0000,04/19.1470/2011,2000,g 12.0,4.0
# From MPC112389
C/2011 KP36 (Spacewatch),e,18.9821,173.3709,180.5564,38.53046,0.0041210,0.87333529,3.9454,01/09.0/2019,2000,g  4.5,4.0
# From MPC 83518
C/2011 L1 (McNaught),e,65.4844,252.1134,294.5760,11.04300,0.0268580,0.79635919,79.0937,01/09.0/2019,2000,g 11.0,4.0
# From MPC 78588
C/2011 L2 (McNaught),e,104.5023,131.5249,257.0751,6296,0.0000020,0.99969008,0.0000,10/29.8611/2011,2000,g 12.5,4.0
# From MPC 77405
C/2011 L3 (McNaught),e,87.3970,307.7012,27.6174,930.0417,0.0000347,0.99793205,0.0000,08/08.4334/2011,2000,g 12.5,4.0
# From MPC103843
C/2011 L4 (PANSTARRS),e,83.8460,66.0378,333.5592,2936,0.0000062,0.99989787,0.0000,03/08.9084/2013,2000,g  5.5,4.0
# From MPC 82718
C/2011 L6 (Boattini),e,171.4435,214.4511,331.5741,30094,0.0000002,0.99977366,0.0000,01/18.0880/2011,2000,g  9.0,4.0
# From MPC 75714
C/2011 M1 (LINEAR),h,09/05.2305/2011,70.1372,325.0825,119.7016,1.002377,0.908346,2000,12.0,4.0
# From MPC 87913
P/2011 N1 (ASH),e,35.7015,77.6129,330.4416,6.253573,0.0630248,0.54301476,152.7421,01/09.0/2019,2000,g 11.5,4.0
# From MPC 75714
P/2011 NO1 (Elenin),e,15.2477,295.8421,263.8129,5.520512,0.0759863,0.77579251,220.8329,01/09.0/2019,2000,g 15.0,4.0
# From MPC 76569
C/2011 N2 (McNaught),e,33.7724,273.7933,357.0747,1874,0.0000122,0.99863796,0.0000,10/20.7481/2011,2000,g 11.5,4.0
# From MPC 87476
C/2011 O1 (LINEAR),e,76.6475,89.7696,232.3453,775.1644,0.0000457,0.99498508,0.0000,08/18.8682/2012,2000,g  7.0,4.0
# From MPC 78186
P/2011 P1 (McNaught),e,5.6498,4.2683,348.8802,7.479843,0.0481798,0.32511818,149.5380,01/09.0/2019,2000,g  9.0,4.0
# From MPC107047
C/2011 P2 (PANSTARRS),e,9.0042,203.9764,75.9463,9.717598,0.0325361,0.37017304,98.9182,01/09.0/2019,2000,g  8.5,4.0
# From MPC 79867
C/2011 Q1 (PANSTARRS),e,94.8351,142.1443,135.7637,3206,0.0000054,0.99789031,0.0000,06/28.6050/2011,2000,g  9.5,4.0
# From MPC 79342
C/2011 Q2 (McNaught),e,37.3599,287.1322,34.7263,842.6540,0.0000403,0.99840421,0.0000,01/19.3646/2012,2000,g 10.0,4.0
# From MPC 77806
P/2011 Q3 (McNaught),e,6.0532,32.0301,310.9486,4.970983,0.0889284,0.53175087,242.6545,01/09.0/2019,2000,g 13.5,4.0
# From MPC 79342
C/2011 Q4 (SWAN),e,147.9706,251.9718,1.9485,41.48841,0.0036882,0.97280649,0.0000,09/18.7447/2011,2000,g 12.5,4.0
# From MPC 88325
C/2011 R1 (McNaught),e,116.1610,221.3250,308.9443,18040,0.0000004,0.99988389,0.0000,10/17.3299/2012,2000,g  6.5,4.0
# From MPC 90269
P/2011 R3 (Novichonok-Gerke),e,19.2268,190.2100,224.0013,4.795649,0.0938497,0.26850448,232.3577,01/09.0/2019,2000,g 11.0,4.0
# From MPC 98558
P/2011 S1 (Gibbs),e,2.6828,218.9498,192.9662,8.602719,0.0390616,0.19962165,62.7041,01/09.0/2019,2000,g  8.0,4.0
# From MPC 80897
C/2011 S2 (Kowalski),e,17.5039,288.0887,192.3471,16.40743,0.0148301,0.93123048,39.0777,01/09.0/2019,2000,g 15.5,4.0
# From MPC 78186
P/2011 U1 (PANSTARRS),e,15.2295,134.9632,353.3216,4.056557,0.1206334,0.41651645,289.0050,01/09.0/2019,2000,g 14.5,4.0
# From MPC105540
